51630,ONEWEB-0431,2022,109.89,148.0,+,87.89,Active,1,LEO,French Guiana,UK,Commercial,Communications,Soyuz,1 51630U 22012J   24034.46094741  .00000685  00000+0  19271-2 0  9990,2 51630  87.8907 208.0409 0001745  71.6915 288.4402 13.10375195 97385,13.10375195,0.0001745,LEO
51631,ONEWEB-0434,2022,109.9,148.0,+,87.89,Active,1,LEO,French Guiana,UK,Commercial,Communications,Soyuz,1 51631U 22012K   24034.51469985 -.00000432  00000+0 -12726-2 0  9993,2 51631  87.8917 208.0363 0001766  96.3242 263.8086 13.10374165 97376,13.10374165,0.0001766,LEO
51632,ONEWEB-0435,2022,109.89,148.0,+,87.89,Active,1,LEO,French Guiana,UK,Commercial,Communications,Soyuz,1 51632U 22012L   24033.98830864  .00000033  00000+0  58387-4 0  9992,2 51632  87.8917 208.1309 0001943  90.4693 269.6657 13.10377485 97286,13.10377485,0.0001943,LEO
51633,ONEWEB-0436,2022,109.29,148.0,+,87.92,Active,1,LEO,French Guiana,UK,Commercial,Communications,Soyuz,1 51633U 22012M   24033.92040988 -.00000077  00000+0 -23137-3 0  9991,2 51633  87.9236 177.9318 0001919 101.3733 258.7614 13.17648326 99731,13.17648326,0.0001919,LEO
51634,ONEWEB-0438,2022,109.89,148.0,+,87.89,Active,1,LEO,French Guiana,UK,Commercial,Communications,Soyuz,1 51634U 22012N   24034.50655791 -.00000739  00000+0 -21529-2 0  9998,2 51634  87.8912 208.0289 0001505 104.3692 255.7603 13.10373725 97399,13.10373725,0.0001505,LEO
51635,ONEWEB-0439,2022,109.89,148.0,+,87.89,Active,1,LEO,French Guiana,UK,Commercial,Communications,Soyuz,1 51635U 22012P   24033.89894983 -.00000534  00000+0 -15664-2 0  9994,2 51635  87.8911 208.1325 0001531  94.0113 266.1189 13.10374466 96008,13.10374466,0.0001531,LEO
51636,ONEWEB-0442,2022,109.29,148.0,+,87.92,Active,1,LEO,French Guiana,UK,Commercial,Communications,Soyuz,1 51636U 22012Q   24033.91247825  .00000054  00000+0  10614-3 0  9991,2 51636  87.9238 177.9631 0000843 126.1506 233.9703 13.17644533 99721,13.17644533,8.43e-05,LEO
51637,ONEWEB-0443,2022,109.29,148.0,+,87.92,Active,1,LEO,French Guiana,UK,Commercial,Communications,Soyuz,1 51637U 22012R   24034.46303686  .00000081  00000+0  17626-3 0  9991,2 51637  87.9240 177.8598 0002066 105.2872 254.8488 13.17648593101130,13.17648593,0.0002066,LEO
